NORAD_CAT_ID,OBJECT_NAME,OBJECT_TYPE,EPOCH,MEAN_MOTION,ECCENTRICITY,INCLINATION,RA_OF_ASC_NODE,ARG_OF_PERICENTER,MEAN_ANOMALY,BSTAR,MEAN_MOTION_DOT,MEAN_MOTION_DDOT,TLE_LINE0,TLE_LINE1,TLE_LINE2,SEMIMAJOR_AXIS,PERIOD,APOGEE,PERIGEE,DECAYED
53966.0,STARLINK-4635,PAYLOAD,2023-11-01 12:09:56,15.08834153,0.0001342,53.2167,121.2192,95.4396,264.6749,7.421e-05,8.93e-06,0.0,0 STARLINK-4635,1 53966U 22125C   23305.50690915  .00000893  00000-0  74210-4 0  9997,2 53966  53.2167 121.2192 0001342  95.4396 264.6749 15.08834153 59683,6917.898,95.438,540.692,538.835,0.0
53966.0,STARLINK-4635,PAYLOAD,2023-11-01 21:42:15,15.08838809,0.000132,53.2168,119.4344,95.3545,264.7598,8.0558e-05,9.94e-06,0.0,0 STARLINK-4635,1 53966U 22125C   23305.90434682  .00000994  00000-0  80558-4 0  9992,2 53966  53.2168 119.4344 0001320  95.3545 264.7598 15.08838809 59677,6917.884,95.438,540.662,538.836,0.0
53966.0,STARLINK-4635,PAYLOAD,2023-11-02 12:00:43,15.0884018,0.0001396,53.2175,116.7574,97.9261,262.189,8.4893e-05,1.063e-05,0.0,0 STARLINK-4635,1 53966U 22125C   23306.50050693  .00001063  00000-0  84893-4 0  9999,2 53966  53.2175 116.7574 0001396  97.9261 262.1890 15.08840180 59768,6917.88,95.438,540.711,538.779,0.0
53966.0,STARLINK-4635,PAYLOAD,2023-11-02 18:22:15,15.08845372,0.00013,53.2171,115.5687,92.5358,267.5783,0.00012182,1.652e-05,0.0,0 STARLINK-4635,1 53966U 22125C   23306.76546279  .00001652  00000-0  12182-3 0  9992,2 53966  53.2171 115.5687 0001300  92.5358 267.5783 15.08845372 59879,6917.864,95.437,540.628,538.83,0.0
53966.0,STARLINK-4635,PAYLOAD,2023-11-03 02:19:12,15.08830969,0.0001336,53.2171,114.0819,87.1657,272.9488,-8.0872e-06,-4.17e-06,0.0,0 STARLINK-4635,1 53966U 22125C   23307.09667455 -.00000417  00000-0 -80872-5 0  9992,2 53966  53.2171 114.0819 0001336  87.1657 272.9488 15.08830969 59925,6917.908,95.438,540.697,538.849,0.0
53966.0,STARLINK-4635,PAYLOAD,2023-11-03 13:26:54,15.08837704,0.0001319,53.2163,112.0002,89.7112,270.4031,1.3275e-05,-7.7e-07,0.0,0 STARLINK-4635,1 53966U 22125C   23307.56034856 -.00000077  00000-0  13275-4 0  9990,2 53966  53.2163 112.0002 0001319  89.7112 270.4031 15.08837704 59924,6917.887,95.438,540.665,538.84,0.0
53966.0,STARLINK-4635,PAYLOAD,2023-11-03 19:48:26,15.08843682,0.0001299,53.2166,110.8114,90.0703,270.0438,0.00011693,1.574e-05,0.0,0 STARLINK-4635,1 53966U 22125C   23307.82530662  .00001574  00000-0  11693-3 0  9998,2 53966  53.2166 110.8114 0001299  90.0703 270.0438 15.08843682 60038,6917.869,95.437,540.633,538.836,0.0
53966.0,STARLINK-4635,PAYLOAD,2023-11-03 21:23:49,15.08845286,0.0001301,53.2166,110.514,87.5213,272.5928,0.00013501,1.862e-05,0.0,0 STARLINK-4635,1 53966U 22125C   23307.89154527  .00001862  00000-0  13501-3 0  9997,2 53966  53.2166 110.5140 0001301  87.5213 272.5928 15.08845286 59979,6917.864,95.437,540.629,538.829,0.0
53966.0,STARLINK-4635,PAYLOAD,2023-11-04 03:45:22,15.08835584,0.0001251,53.2166,109.324,83.6749,276.4386,-4.2596e-05,-9.66e-06,0.0,0 STARLINK-4635,1 53966U 22125C   23308.15650950 -.00000966  00000-0 -42596-4 0  9991,2 53966  53.2166 109.3240 0001251  83.6749 276.4386 15.08835584 60086,6917.894,95.438,540.624,538.893,0.0
53966.0,STARLINK-4635,PAYLOAD,2023-11-04 18:03:50,15.0884308,0.0001352,53.2166,106.6482,84.7945,275.3201,0.00022494,3.294e-05,0.0,0 STARLINK-4635,1 53966U 22125C   23308.75266924  .00003294  00000-0  22494-3 0  9990,2 53966  53.2166 106.6482 0001352  84.7945 275.3201 15.08843080 60103,6917.871,95.437,540.671,538.801,0.0
53966.0,STARLINK-4635,PAYLOAD,2023-11-05 03:36:09,15.08846495,0.000128,53.2165,104.8642,88.2529,271.861,0.00055097,8.493e-05,0.0,0 STARLINK-4635,1 53966U 22125C   23309.15010942  .00008493  00000-0  55097-3 0  9993,2 53966  53.2165 104.8642 0001280  88.2529 271.8610 15.08846495 60239,6917.861,95.437,540.611,538.84,0.0
53966.0,STARLINK-4635,PAYLOAD,2023-11-05 14:43:51,15.08852829,0.0001219,53.2161,102.7822,87.6027,272.5105,0.00049338,7.576e-05,0.0,0 STARLINK-4635,1 53966U 22125C   23309.61378555  .00007576  00000-0  49338-3 0  9993,2 53966  53.2161 102.7822 0001219  87.6027 272.5105 15.08852829 60235,6917.841,95.437,540.549,538.863,0.0
53966.0,STARLINK-4635,PAYLOAD,2023-11-05 17:54:37,15.08861985,0.0001424,53.2163,102.1882,87.6907,272.4248,0.00077296,0.00012042,0.0,0 STARLINK-4635,1 53966U 22125C   23309.74626347  .00012042  00000-0  77296-3 0  9990,2 53966  53.2163 102.1882 0001424  87.6907 272.4248 15.08861985 60254,6917.813,95.436,540.663,538.693,0.0
53966.0,STARLINK-4635,PAYLOAD,2023-11-06 14:34:37,15.08865666,0.0001186,53.2153,98.3215,77.8894,282.2231,0.00056152,8.666e-05,0.0,0 STARLINK-4635,1 53966U 22125C   23310.60737315  .00008666  00000-0  56152-3 0  9990,2 53966  53.2153  98.3215 0001186  77.8894 282.2231 15.08865666 60385,6917.802,95.436,540.487,538.846,0.0
53966.0,STARLINK-4635,PAYLOAD,2023-11-06 17:45:23,15.08826707,0.0001313,53.2156,97.7262,92.3774,267.7368,-0.00097041,-0.00015693,0.0,0 STARLINK-4635,1 53966U 22125C   23310.73985817 -.00015693  00000-0 -97041-3 0  9998,2 53966  53.2156  97.7262 0001313  92.3774 267.7368 15.08826707 60476,6917.921,95.438,540.694,538.878,0.0
53966.0,STARLINK-4635,PAYLOAD,2023-11-07 14:25:26,15.08817299,0.0001348,53.215,93.8626,86.0537,274.0609,0.00126,0.00019809,0.0,0 STARLINK-4635,1 53966U 22125C   23311.60100053  .00019809  00000-0  12600-2 0  9994,2 53966  53.2150  93.8626 0001348  86.0537 274.0609 15.08817299 60538,6917.95,95.439,540.747,538.882,0.0
53966.0,STARLINK-4635,PAYLOAD,2023-11-07 16:00:49,15.08819603,0.000132,53.2154,93.5664,80.453,279.6611,0.0012354,0.00019417,0.0,0 STARLINK-4635,1 53966U 22125C   23311.66724154  .00019417  00000-0  12354-2 0  9995,2 53966  53.2154  93.5664 0001320  80.4530 279.6611 15.08819603 60616,6917.943,95.439,540.721,538.895,0.0
53966.0,STARLINK-4635,PAYLOAD,2023-11-08 03:08:31,15.08849274,7.04e-05,53.2172,91.4834,81.1651,278.942,0.0014836,0.00023408,0.0,0 STARLINK-4635,1 53966U 22125C   23312.13092029  .00023408  00000-0  14836-2 0  9999,2 53966  53.2172  91.4834 0000704  81.1651 278.9420 15.08849274 60683,6917.852,95.437,540.204,539.23,0.0
53966.0,STARLINK-4635,PAYLOAD,2023-11-08 09:30:04,15.08846985,0.0001389,53.2166,90.2947,82.766,277.349,0.0011178,0.0001755,0.0,0 STARLINK-4635,1 53966U 22125C   23312.39588355  .00017550  00000-0  11178-2 0  9996,2 53966  53.2166  90.2947 0001389  82.7660 277.3490 15.08846985 60726,6917.859,95.437,540.685,538.763,0.0
53966.0,STARLINK-4635,PAYLOAD,2023-11-08 14:16:13,15.08855485,0.0001435,53.2154,89.4017,83.7515,276.3641,0.0012947,0.00020386,0.0,0 STARLINK-4635,1 53966U 22125C   23312.59460142  .00020386  00000-0  12947-2 0  9997,2 53966  53.2154  89.4017 0001435  83.7515 276.3641 15.08855485 60680,6917.833,95.437,540.691,538.705,0.0
53966.0,STARLINK-4635,PAYLOAD,2023-11-08 15:51:36,15.08858362,0.0001417,53.2156,89.1047,80.6953,279.42,0.0014352,0.00022638,0.0,0 STARLINK-4635,1 53966U 22125C   23312.66084075  .00022638  00000-0  14352-2 0  9996,2 53966  53.2156  89.1047 0001417  80.6953 279.4200 15.08858362 60697,6917.824,95.436,540.67,538.709,0.0
53966.0,STARLINK-4635,PAYLOAD,2023-11-09 12:31:37,15.08854111,0.0001364,53.2173,85.2371,78.5256,281.589,0.0005215,8.025e-05,0.0,0 STARLINK-4635,1 53966U 22125C   23313.52195797  .00008025  00000-0  52150-3 0  9999,2 53966  53.2173  85.2371 0001364  78.5256 281.5890 15.08854111 60895,6917.837,95.437,540.646,538.759,0.0
53966.0,STARLINK-4635,PAYLOAD,2023-11-09 14:07:00,15.08851921,0.0001341,53.2172,84.9402,84.2117,275.9027,0.0003908,5.939e-05,0.0,0 STARLINK-4635,1 53966U 22125C   23313.58819755  .00005939  00000-0  39080-3 0  9990,2 53966  53.2172  84.9402 0001341  84.2117 275.9027 15.08851921 60839,6917.844,95.437,540.637,538.781,0.0
53966.0,STARLINK-4635,PAYLOAD,2023-11-09 15:42:23,15.08850328,0.0001327,53.2174,84.6424,88.4457,271.6687,0.00031539,4.736e-05,0.0,0 STARLINK-4635,1 53966U 22125C   23313.65443602  .00004736  00000-0  31539-3 0  9997,2 53966  53.2174  84.6424 0001327  88.4457 271.6687 15.08850328 60845,6917.849,95.437,540.632,538.796,0.0
53966.0,STARLINK-4635,PAYLOAD,2023-11-10 12:22:24,15.08841155,0.0001493,53.2176,80.7788,89.2636,270.8527,0.00017188,2.449e-05,0.0,0 STARLINK-4635,1 53966U 22125C   23314.51555890  .00002449  00000-0  17188-3 0  9999,2 53966  53.2176  80.7788 0001493  89.2636 270.8527 15.08841155 61044,6917.877,95.437,540.775,538.709,0.0
53966.0,STARLINK-4635,PAYLOAD,2023-11-10 13:57:47,15.08843365,0.0001479,53.2179,80.4809,88.2138,271.9023,7.4213e-05,8.93e-06,0.0,0 STARLINK-4635,1 53966U 22125C   23314.58179818  .00000893  00000-0  74213-4 0  9992,2 53966  53.2179  80.4809 0001479  88.2138 271.9023 15.08843365 60988,6917.87,95.437,540.758,538.712,0.0
53966.0,STARLINK-4635,PAYLOAD,2023-11-10 15:33:10,15.08846723,0.000143,53.2171,80.1846,79.3814,280.7339,8.7143e-05,1.099e-05,0.0,0 STARLINK-4635,1 53966U 22125C   23314.64803698  .00001099  00000-0  87143-4 0  9994,2 53966  53.2171  80.1846 0001430  79.3814 280.7339 15.08846723 60997,6917.86,95.437,540.714,538.736,0.0
53966.0,STARLINK-4635,PAYLOAD,2023-11-11 13:48:34,15.08841206,0.0001485,53.2183,76.0231,88.5561,271.5602,7.5723e-05,9.17e-06,0.0,0 STARLINK-4635,1 53966U 22125C   23315.57539888  .00000917  00000-0  75723-4 0  9993,2 53966  53.2183  76.0231 0001485  88.5561 271.5602 15.08841206 61132,6917.877,95.437,540.769,538.714,0.0
53966.0,STARLINK-4635,PAYLOAD,2023-11-11 15:23:57,15.08844348,0.0001463,53.2176,75.7252,90.536,269.58,0.00011813,1.593e-05,0.0,0 STARLINK-4635,1 53966U 22125C   23315.64163708  .00001593  00000-0  11813-3 0  9995,2 53966  53.2176  75.7252 0001463  90.5360 269.5800 15.08844348 61215,6917.867,95.437,540.744,538.72,0.0
53966.0,STARLINK-4635,PAYLOAD,2023-11-12 13:39:21,15.08839987,0.0001512,53.2178,71.5625,95.4355,264.6809,4.6791e-05,4.57e-06,0.0,0 STARLINK-4635,1 53966U 22125C   23316.56899925  .00000457  00000-0  46791-4 0  9996,2 53966  53.2178  71.5625 0001512  95.4355 264.6809 15.08839987 61283,6917.88,95.438,540.791,538.699,0.0
